     2.11           NAVIGATION DATA     GPS(GPS)            RINEX VERSION / TYPE
cnvtToRINEX 3.08.0  convertToRINEX OPR  10-Mar-23 03:50 UTC PGM / RUN BY / DATE 
----------------------------------------------------------- COMMENT             
    0.3353D-07  0.7451D-08 -0.1788D-06  0.5960D-07          ION ALPHA           
    0.1393D+06  0.0000D+00 -0.1966D+06 -0.6554D+05          ION BETA            
   -0.558793544769D-08-0.133226762955D-13    61440     2252 DELTA-UTC: A0,A1,T,W
    18                                                      LEAP SECONDS        
                                                            END OF HEADER       
 8 23 03 10 03 59 44.0-0.112188048661D-03-0.181898940355D-11 0.000000000000D+00
    0.200000000000D+02-0.723437500000D+02 0.472019661514D-08 0.293919868634D+00
   -0.373087823391D-05 0.840412557591D-02 0.582449138165D-05 0.515366589546D+04
    0.446384000000D+06 0.912696123123D-07 0.268008905288D+01 0.577419996262D-07
    0.959812062494D+00 0.266125000000D+03 0.232579753069D+00-0.837642034010D-08
   -0.362515100209D-09 0.100000000000D+01 0.225200000000D+04 0.000000000000D+00
    0.200000000000D+01 0.000000000000D+00 0.512227416039D-08 0.200000000000D+02
    0.440478000000D+06 0.400000000000D+01 0.000000000000D+00 0.000000000000D+00
26 23 03 10 04 00  0.0 0.241933856159D-03 0.113686837722D-12 0.000000000000D+00
    0.170000000000D+02 0.692812500000D+02 0.536129474802D-08 0.209059881486D+01
    0.357814133167D-05 0.788569578435D-02 0.444799661636D-05 0.515365256882D+04
    0.446400000000D+06-0.182539224625D-06 0.159290435296D+01 0.372529029846D-07
    0.934240928873D+00 0.280062500000D+03 0.457044007592D+00-0.866786105120D-08
    0.332513850537D-09 0.100000000000D+01 0.225200000000D+04 0.000000000000D+00
    0.200000000000D+01 0.000000000000D+00 0.698491930962D-08 0.170000000000D+02
    0.442356000000D+06 0.400000000000D+01 0.000000000000D+00 0.000000000000D+00
28 23 03 10 04 00  0.0 0.386736355722D-04 0.109139364213D-10 0.000000000000D+00
    0.700000000000D+01 0.215937500000D+02 0.420338937375D-08 0.217751497652D+01
    0.116229057312D-05 0.946522457525D-03 0.120792537928D-04 0.515364385796D+04
    0.446400000000D+06 0.633299350739D-07 0.575637291798D+00 0.577419996262D-07
    0.961994294467D+00 0.149000000000D+03 0.169326968229D+01-0.782818321811D-08
    0.600024993449D-10 0.100000000000D+01 0.225200000000D+04 0.000000000000D+00
    0.200000000000D+01 0.000000000000D+00-0.139698386192D-08 0.519000000000D+03
    0.442362000000D+06 0.400000000000D+01 0.000000000000D+00 0.000000000000D+00
 4 23 03 10 04 00  0.0-0.105565413833D-04 0.864019966684D-11 0.000000000000D+00
    0.840000000000D+02-0.706875000000D+02 0.457090468224D-08-0.170135922867D+00
   -0.386685132980D-05 0.232606392819D-02 0.744871795177D-05 0.515370137405D+04
    0.446400000000D+06 0.931322574615D-08-0.401336220259D+00 0.316649675369D-07
    0.962724790906D+00 0.235156250000D+03-0.301469839184D+01-0.816426864599D-08
   -0.578952687132D-09 0.100000000000D+01 0.225200000000D+04 0.000000000000D+00
    0.200000000000D+01 0.000000000000D+00-0.465661287308D-08 0.852000000000D+03
    0.440448000000D+06 0.400000000000D+01 0.000000000000D+00 0.000000000000D+00
27 23 03 10 03 59 44.0 0.845454633236D-04-0.852651282912D-11 0.000000000000D+00
    0.400000000000D+01-0.665312500000D+02 0.454447500991D-08 0.306927406198D+00
   -0.349245965481D-05 0.114620890236D-01 0.630877912045D-05 0.515366289139D+04
    0.446384000000D+06-0.111758708954D-07 0.270276304840D+01 0.145286321640D-06
    0.968693714644D+00 0.264187500000D+03 0.708483663966D+00-0.834070456668D-08
   -0.387516141603D-09 0.100000000000D+01 0.225200000000D+04 0.000000000000D+00
    0.200000000000D+01 0.000000000000D+00 0.186264514923D-08 0.400000000000D+01
    0.442332000000D+06 0.400000000000D+01 0.000000000000D+00 0.000000000000D+00
16 23 03 10 04 00  0.0-0.516259111464D-03 0.204636307899D-11 0.000000000000D+00
    0.980000000000D+02 0.484375000000D+02 0.473126850490D-08 0.112367200097D+01
    0.261515378952D-05 0.134147923673D-01 0.415556132793D-05 0.515356200790D+04
    0.446400000000D+06-0.145286321640D-06 0.174695844957D+01 0.104308128357D-06
    0.965496379908D+00 0.304375000000D+03 0.777154701944D+00-0.851999774925D-08
    0.120004998690D-09 0.100000000000D+01 0.225200000000D+04 0.000000000000D+00
    0.280000000000D+01 0.000000000000D+00-0.102445483208D-07 0.980000000000D+02
    0.442338000000D+06 0.400000000000D+01 0.000000000000D+00 0.000000000000D+00
31 23 03 10 03 59 44.0-0.211221165955D-03-0.909494701773D-12 0.000000000000D+00
    0.800000000000D+01 0.321562500000D+02 0.429589322691D-08 0.312251749213D+01
    0.160746276379D-05 0.106286195805D-01 0.120885670185D-04 0.515418647385D+04
    0.446384000000D+06-0.391155481339D-07 0.633508686694D+00-0.931322574615D-07
    0.954901726758D+00 0.143718750000D+03 0.518036617207D+00-0.776532345689D-08
    0.107147320259D-09 0.100000000000D+01 0.225200000000D+04 0.000000000000D+00
    0.200000000000D+01 0.000000000000D+00-0.135041773319D-07 0.800000000000D+01
    0.442338000000D+06 0.400000000000D+01 0.000000000000D+00 0.000000000000D+00
 9 23 03 10 04 00  0.0-0.203631818295D-03 0.738964445191D-11 0.000000000000D+00
    0.630000000000D+02-0.680312500000D+02 0.478055627221D-08 0.644384206949D+00
   -0.367127358913D-05 0.242718611844D-02 0.696629285812D-05 0.515365633583D+04
    0.446400000000D+06-0.502914190292D-07-0.457390259820D+00-0.223517417908D-07
    0.955915531913D+00 0.241687500000D+03 0.196692840763D+01-0.828105922507D-08
   -0.536093759028D-09 0.100000000000D+01 0.225200000000D+04 0.000000000000D+00
    0.200000000000D+01 0.000000000000D+00 0.139698386192D-08 0.630000000000D+02
    0.442596000000D+06 0.400000000000D+01 0.000000000000D+00 0.000000000000D+00
21 23 03 10 04 00  0.0 0.154305249453D-03 0.113686837722D-12 0.000000000000D+00
    0.210000000000D+02-0.746875000000D+01 0.453840332843D-08 0.238556000175D+00
   -0.642612576485D-06 0.248477220302D-01 0.116899609566D-04 0.515364454269D+04
    0.446400000000D+06 0.596046447754D-07-0.261558841984D+01-0.357627868652D-06
    0.961778887094D+00 0.162343750000D+03-0.798799578489D+00-0.835427656058D-08
    0.960754304987D-10 0.100000000000D+01 0.225200000000D+04 0.000000000000D+00
    0.200000000000D+01 0.000000000000D+00-0.102445483208D-07 0.210000000000D+02
    0.444438000000D+06 0.400000000000D+01 0.000000000000D+00 0.000000000000D+00
